#dP2024 12 15  0  0  0.00000000      97 __u+U IGS20 FIT  IAC
## 2345      0.00000000   900.00000000 60659 0.0000000000000
+  118   C06C07C08C09C10C11C12C13C14C16C19C20C21C22C23C24C25
+        C26C27C28C29C30C32C33C34C35C36C37C38C39C40C41C42C43
+        C44C45E02E03E04E05E06E07E08E09E10E11E12E13E14E15E18
+        E19E21E24E25E26E27E29E30E31E33E34E36G02G03G04G05G06
+        G07G08G09G10G11G12G13G14G15G16G17G18G19G20G21G22G23
+        G24G25G26G27G28G29G30G31G32J02J03J04R01R02R03R04R05
+        R07R08R09R11R12R14R15R16R17R18R19R20R21R22R24R26  0
++         7  7  7  7  7  7  7  7  7  7  5  6  6  6  5  6  6
++         5  6  6  5  6  6  5  6  6  5  5  6  6  6  6  5  6
++         6  5  4  4  4  4  4  4  4  4  4  4  4  4  4  4  4
++         4  4  4  4  4  4  4  4  4  4  4  4  3  3  3  4  3
++         3  4  3  3  3  3  3  3  3  4  3  3  3  3  3  3  3
++         3  3  4  4  3  3  3  4  3 10 11 10  7  6  6  6  6
++         6  6  6  6  6  7  7  6  7  7  8  7  6  6  7  7  0
%c M  cc GPS ccc cccc cccc cccc cccc ccccc ccccc ccccc ccccc
%c cc cc ccc ccc cccc cccc cccc cccc ccccc ccccc ccccc ccccc
%f  1.2500000  1.025000000  0.00000000000  0.000000000000000
%f  0.0000000  0.000000000  0.00000000000  0.000000000000000
%i    0    0    0    0      0      0      0      0         0
%i    0    0    0    0      0      0      0      0         0
/* INFORMATION & ANALYSIS CENTER (IAC)            FINAL DATA
/* S/V CLOCKS ARE ALIGNED TO GNSS TIME                      
/* G:C1WC2W R:C1PC2P E:C1XC5X C:C2IC6I J:C1CC2S             
/* PCV:IGS20_2317 OL/AL:FES2004  NONE     YN ORB:CoN CLK:CoN
*  2024 12 15  6 45  0.00000000
PC06 -16629.337227  26595.577538  28125.292666    549.051158
PC07  -8510.982739  40813.402986   7230.751440   -122.051795
PC08    728.871750  24617.166485 -34164.065328   -921.218138
PC09  -7974.327067  26114.776509  32460.115760   -783.155106
PC10  -3051.460564  42365.959105   1216.927198   -336.949020
PC11  12200.367100   9755.736236 -23046.154403    290.016688
PC12  -5611.653421  21136.141375 -17286.605149   -234.474059
PC13   5763.589950  27678.392370 -30976.840652     78.812214
PC14  14173.882554  20354.152561  12848.720057   -543.571458
PC16 -19283.625118  26047.023656  27089.700811     23.091050
PC19 -16346.331788 -11595.062357 -19390.845764   -968.100906
PC20 -10523.595554 -25133.599530  -5956.744808   -890.352034
PC21  -2399.652789  24791.086261 -12597.738531   -909.068012
PC22 -13225.575152   9539.112995 -22656.803472    206.123224
PC23  23778.179949  -4005.145998 -14044.985844   -917.409765
PC24  13023.864381  16993.929819  17858.998332    730.943723
PC25  26392.310165   8610.594341   2703.946506    588.727419
PC26  -7032.601369  14953.083406  22465.793284   -391.459067
PC27  13238.822681 -22530.196003   9787.407815    409.919934
PC28  22038.976238 -16287.934672  -5260.859732    319.945697
PC29 -18560.458759  -1802.253608  20760.087848    375.611400
PC30  -3222.311388 -18168.303530  20935.860620     53.554247
PC32   2314.919492 -24725.763998  12728.954227   -840.487482
PC33  16450.512587  11607.447747  19328.482020   -947.480863
PC34   4978.144873  17022.120402 -21549.518224    585.887119
PC35 -21613.874648  16574.191546   5977.453077    181.150055
PC36 -26326.300090  -8978.890721  -2348.657136    237.630316
PC37   7679.665430 -14695.139474 -22444.131833   -896.630549
PC38  -6818.251081  22424.254526 -34950.272726    197.129114
PC39 -23756.919140  26460.999621  22491.004600    -10.576167
PC40 -13906.661076  38959.831815   8968.064076   -108.471803
PC41  13662.948334  -8477.050657  22856.954439   -884.826069
PC42   9598.677723  25896.251124   4146.670753   -539.359000
PC43  18098.805191   2822.314377 -21064.941514     95.312065
PC44 -12351.120637  23077.543666  -9646.813866    681.782831
PC45 -24112.739296   3397.149007  13643.052333   -188.012265
PE02  22718.973853  12413.128165 -14342.056419    182.425319
PE03  16796.768527   3094.557446  24165.369131   -160.008734
PE04 -17978.755237  18125.701778 -14978.279286   -107.266789
PE05   5772.051357  22003.428725  18936.784871   4810.423845
PE06 -14403.897285  25037.219944  -6463.633722    -58.799703
PE07   8895.155812 -28132.722985  -2321.611386   -158.251715
PE08  18069.564920 -17500.021204  15588.996296   -384.188841
PE09  -8980.347245  28120.130204   2260.466820   -700.638675
PE10 -19549.427379  14242.552621 -17062.444477   -676.542987
PE11  -8767.049253  16443.762892 -22994.759947    249.595984
PE12 -26084.550477  10297.093560  -9443.153461  -1340.977326
PE13   9431.719652 -16342.107691  22821.289897    -27.943074
PE14  17094.045038   8601.378494 -22217.664058    474.456804
PE15  26481.698544  -9910.741044   8782.583552   -145.081014
PE18 -19760.407803  11778.125081  16962.393487    885.680642
PE19 -15990.321379  -5103.529528 -24379.163708   1086.298702
PE21 -16601.660493 -24273.511586  -3406.624551   -634.210505
PE24    324.284047  22159.515700  19589.486417  -1155.935473
PE25  16313.774945  24392.588219   3837.807690     12.269360
PE26 -13302.072032 -13070.051488  23001.695846   -182.827399
PE27   -451.504260 -22171.888766 -19616.828044   -530.118152
PE29  -6109.546827 -21801.031350 -19082.770812    -53.799064
PE30  15733.934822  -7150.856870 -24044.783769  -1030.551381
PE31 -15769.838472   7008.295922  24050.798765    -46.684317
PE33 -27532.223457  -2530.820180  10592.923005     16.358602
PE34  27694.525771   2199.737561 -10196.364986   -151.787325
PE36  12765.528295  13109.639745 -23256.250610   -325.109418
PG02    350.005265  15320.898734 -21179.411350   -291.641202
PG03  10381.147071  21830.276712 -11296.161184    624.847975
PG04   1195.129426  23447.400232  12286.802003    496.102567
PG05   3026.588630 -16340.663365  20528.285447   -196.056278
PG06  26047.000022  -5486.447814   -602.691699    -45.315382
PG07  17407.436520   9352.468783  18488.046064    -15.570997
PG08  -5545.720876  25698.813777  -1193.906326    438.788682
PG09   8542.176224  17314.973467  18116.282617    487.677521
PG10 -20322.728377  -6092.080625 -15961.184770   -235.091478
PG11  20428.851867 -12264.271356  11709.374875   -752.626446
PG12  -5764.669147 -22085.386540 -13910.605276   -558.450674
PG13  13695.881275 -22008.106635   4936.678111    690.010907
PG14  21301.983387   9261.504390 -13046.829422    560.461071
PG15   1766.977497 -26374.845298  -2079.961478    239.760776
PG16  -9461.460809  12016.032557  21320.460231   -102.900196
PG17  15371.873122    632.943137 -21260.692174    518.432029
PG18 -19358.030552  -7344.466729  16797.629754   -660.278957
PG19  17186.685127  -9369.525850 -17884.728250    574.125906
PG20  13631.132917  -8568.324132  21186.095729    367.881554
PG21  -6187.113451  16378.450320 -19231.377664     96.123926
PG22  18416.370599   2322.492800 -18489.538464    -86.436080
PG23 -20536.061319 -16537.879029  -4066.217355    383.829733
PG24   1370.713196 -16869.387428 -20859.057254   -473.329070
PG25 -17062.255530 -20349.011709  -3177.790380    498.078653
PG26 -17861.851327   3453.875610  19291.801510     -9.456003
PG27 -12513.161719  21224.948236   9020.763238    -34.166756
PG28 -25910.561881   5075.432380  -2930.192763   -508.567332
PG29  -6889.314191 -17734.904018  18437.833999   -555.805884
PG30  25006.978734    986.316889   9439.593511   -260.979351
PG31 -23688.775999  10210.925483   6833.045722   -219.940359
PG32 -15941.209654   3742.462396 -20646.000709   -558.772971
PJ02 -26589.134061  22896.171891  28580.308102      0.016738
PJ03 -34081.014214  20407.925442  -9206.738305     -9.141856
PJ04 -19649.242443  29942.246351 -17330.456655     21.394265
PR01  -4138.660345 -24944.627904  -3338.540230    107.826504
PR02  -9387.810649 -15175.741193 -18217.560899    -39.114017
PR03 -10441.653559   3784.025390 -22912.993249    113.283280
PR04  -5686.245048  19825.007167 -14967.490304    268.516427
PR05   1932.625046  25400.755482    984.056309    142.204694
PR07  10410.607651  -4319.980569  22926.944221     96.962587
PR08   5505.507761 -20079.755465  14825.973037     -6.109747
PR09  22164.576331  12023.800874   4146.966107    226.321682
PR11  11016.476702  -6414.061779 -22091.154629      4.573634
PR12  -8904.590378 -14396.365420 -19069.752115     48.435854
PR14 -21870.195037  -3396.324697  12670.376092     27.433939
PR15  -9406.871852   7513.796038  22499.369459     73.170075
PR16   8843.757822  14243.221053  19240.661219     31.644246
PR17 -21818.444019   9489.187184   9269.902354    148.663886
PR18 -18556.311022  15942.250344  -7115.442869    176.898509
PR19  -8083.318241  14903.191052 -19052.231571   -301.974346
PR20  12352.836303   4025.320186 -21942.536862   -123.238960
PR21  21667.291527  -8611.944263 -10304.722928   -159.680347
PR22  18128.776292 -15920.488720   8328.205381    -42.174912
PR24 -13160.307715  -3475.563312  21600.937502    -84.129171
PR26   6118.522689 -18742.013576  16194.857650   -132.733383
EOF
